[
    {
        "Altitude(m)": 562519.291737687,
        "Argument of Periapsis(deg)": 0.033114955553567506,
        "Eccentricity": 0.0,
        "Inclination(deg)": 53.0,
        "Latitude(deg)": -30.08757983794402,
        "Longitude(deg)": 140.27684418526033,
        "Mean Anomaly(deg)": -38.63283566211203,
        "RAAN(deg)": 269.9507168426401,
        "Satellite Name": "Starlink Shell 1 1204",
        "Satellite Number": 1204,
        "Semi-Major Axis(m)": 6931778.249405717,
        "Time(s)": 950
    },
    {
        "Altitude(m)": 562344.1250656529,
        "Argument of Periapsis(deg)": 0.03346353403307874,
        "Eccentricity": 0.0,
        "Inclination(deg)": 53.0,
        "Latitude(deg)": -29.634600611908077,
        "Longitude(deg)": 140.73458742326522,
        "Mean Anomaly(deg)": -38.00600445855528,
        "RAAN(deg)": 269.9501980725626,
        "Satellite Name": "Starlink Shell 1 1204",
        "Satellite Number": 1204,
        "Semi-Major Axis(m)": 6931778.249405717,
        "Time(s)": 960
    },
    {
        "Altitude(m)": 562169.1754224416,
        "Argument of Periapsis(deg)": 0.03381211251258998,
        "Eccentricity": 0.0,
        "Inclination(deg)": 53.0,
        "Latitude(deg)": -29.1797161365542,
        "Longitude(deg)": 141.18789385920633,
        "Mean Anomaly(deg)": -37.37917325499863,
        "RAAN(deg)": 269.94967930248515,
        "Satellite Name": "Starlink Shell 1 1204",
        "Satellite Number": 1204,
        "Semi-Major Axis(m)": 6931778.249405717,
        "Time(s)": 970
    },
    {
        "Altitude(m)": 561994.5080906436,
        "Argument of Periapsis(deg)": 0.034160690992101214,
        "Eccentricity": 0.0,
        "Inclination(deg)": 53.0,
        "Latitude(deg)": -28.722976456673347,
        "Longitude(deg)": 141.63686594542386,
        "Mean Anomaly(deg)": -36.752342051441936,
        "RAAN(deg)": 269.94916053240763,
        "Satellite Name": "Starlink Shell 1 1204",
        "Satellite Number": 1204,
        "Semi-Major Axis(m)": 6931778.249405717,
        "Time(s)": 980
    },
    {
        "Altitude(m)": 561820.1880803313,
        "Argument of Periapsis(deg)": 0.034509269471612446,
        "Eccentricity": 0.0,
        "Inclination(deg)": 53.0,
        "Latitude(deg)": -28.2644305234403,
        "Longitude(deg)": 142.08160534773864,
        "Mean Anomaly(deg)": -36.12551084788519,
        "RAAN(deg)": 269.9486417623302,
        "Satellite Name": "Starlink Shell 1 1204",
        "Satellite Number": 1204,
        "Semi-Major Axis(m)": 6931778.249405717,
        "Time(s)": 990
    }
]